ION SCV-004             
1 50993U 22002K   26068.68892644  .00006538  00000+0  23198-3 0  9998
2 50993  97.2961 128.2294 0007216   1.6783 358.4480 15.29369331230088
STARLINK-30813          
1 58213U 23170H   26067.44822676 -.00027426  00000+0 -10147-2 0  9999
2 58213  43.0016 200.8924 0002190 276.2944  83.7658 15.26795732130116
